[{"OBJECT_NAME":"YUNYAO-1 44","OBJECT_ID":"2025-059B","EPOCH":"2026-03-09T23:37:33.233088","MEAN_MOTION":15.10344945,"ECCENTRICITY":0.00180831,"INCLINATION":97.6069,"RA_OF_ASC_NODE":250.8958,"ARG_OF_PERICENTER":135.5449,"MEAN_ANOMALY":224.7236,"EPHEMERIS_TYPE":0,"CLASSIFICATION_TYPE":"U","NORAD_CAT_ID":63345,"ELEMENT_SET_NO":999,"REV_AT_EPOCH":5332,"BSTAR":0.0003556422,"MEAN_MOTION_DOT":5.791e-5,"MEAN_MOTION_DDOT":0},{"OBJECT_NAME":"STARLINK-35206","OBJECT_ID":"2025-207Y","EPOCH":"2026-03-09T17:12:42.951456","MEAN_MOTION":15.0567138,"ECCENTRICITY":0.00010486,"INCLINATION":97.6033,"RA_OF_ASC_NODE":138.661,"ARG_OF_PERICENTER":79.172,"MEAN_ANOMALY":280.9625,"EPHEMERIS_TYPE":0,"CLASSIFICATION_TYPE":"U","NORAD_CAT_ID":65614,"ELEMENT_SET_NO":999,"REV_AT_EPOCH":2815,"BSTAR":0.00065223919,"MEAN_MOTION_DOT":9.368e-5,"MEAN_MOTION_DDOT":0}]
